{"type": "FeatureCollection", "features": [ {"type": "Feature", "properties": {"norad_id": 37691, "name": "FENGYUN 1C DEB", "group": "fengyun-1c-debris", "lat": -13.031245739303792, "lon": -99.44170463033838, "alt_km": 849.565333304402, "timestamp": "2025-12-20T20:38:44.732228+00:00", "meta": {"OBJECT_NAME": "FENGYUN 1C DEB", "OBJECT_ID": "1999-025ELG", "EPOCH": "2025-12-18T12:41:57.946560", "MEAN_MOTION": 14.5778063, "ECCENTRICITY": 0.02804592, "INCLINATION": 98.373, "RA_OF_ASC_NODE": 256.256, "ARG_OF_PERICENTER": 132.1144, "MEAN_ANOMALY": 230.4266, "EPHEMERIS_TYPE": 0, "CLASSIFICATION_TYPE": "U", "NORAD_CAT_ID": 37691, "ELEMENT_SET_NO": 999, "REV_AT_EPOCH": 85718, "BSTAR": 0.0012070229, "MEAN_MOTION_DOT": 9.478e-05, "MEAN_MOTION_DDOT": 0}, "tle": {"line1": "1 37691U 99025ELG 25352.52914290  .00009478  00000+0  12070-2 0  9999", "line2": "2 37691  98.3730 256.2560 0280459 132.1144 230.4266 14.57780630857181"}}, "geometry": {"type": "Point", "coordinates": [-99.44170463033838, -13.031245739303792]}}, {"type": "Feature", "properties": {"norad_id": 37693, "name": "FENGYUN 1C DEB", "group": "fengyun-1c-debris", "lat": 58.424630643509296, "lon": -20.05268036713772, "alt_km": 806.6343400665846, "timestamp": "2025-12-20T20:38:44.732239+00:00", "meta": {"OBJECT_NAME": "FENGYUN 1C DEB", "OBJECT_ID": "1999-025ELJ", "EPOCH": "2025-12-16T18:19:01.844256", "MEAN_MOTION": 14.08494893, "ECCENTRICITY": 0.00726586, "INCLINATION": 98.6941, "RA_OF_ASC_NODE": 350.4139, "ARG_OF_PERICENTER": 63.6223, "MEAN_ANOMALY": 113.0699, "EPHEMERIS_TYPE": 0, "CLASSIFICATION_TYPE": "U", "NORAD_CAT_ID": 37693, "ELEMENT_SET_NO": 999, "REV_AT_EPOCH": 62205, "BSTAR": 0.00066899007, "MEAN_MOTION_DOT": 1.134e-05, "MEAN_MOTION_DDOT": 0}, "tle": {"line1": "1 37693U 99025ELJ 25350.76321579  .00001134  00000+0  66899-3 0  9997", "line2": "2 37693  98.6941 350.4139 0072658  63.6223 113.0699 14.08494893622056"}}, "geometry": {"type": "Point", "coordinates": [-20.05268036713772, 58.424630643509296]}}, {"type": "Feature", "properties": {"norad_id": 37694, "name": "FENGYUN 1C DEB", "group": "fengyun-1c-debris", "lat": 26.924680748266702, "lon": 57.640106685470386, "alt_km": 756.4830545072546, "timestamp": "2025-12-20T20:38:44.732249+00:00", "meta": {"OBJECT_NAME": "FENGYUN 1C DEB", "OBJECT_ID": "1999-025ELK", "EPOCH": "2025-12-14T10:20:27.757248", "MEAN_MOTION": 14.16668534, "ECCENTRICITY": 0.01472645, "INCLINATION": 98.1988, "RA_OF_ASC_NODE": 55.9107, "ARG_OF_PERICENTER": 88.6122, "MEAN_ANOMALY": 288.1431, "EPHEMERIS_TYPE": 0, "CLASSIFICATION_TYPE": "U", "NORAD_CAT_ID": 37694, "ELEMENT_SET_NO": 999, "REV_AT_EPOCH": 51728, "BSTAR": 0.0018272074, "MEAN_MOTION_DOT": 4.021e-05, "MEAN_MOTION_DDOT": 0}, "tle": {"line1": "1 37694U 99025ELK 25348.43087682  .00004021  00000+0  18272-2 0  9992", "line2": "2 37694  98.1988  55.9107 0147264  88.6122 288.1431 14.16668534517286"}}, "geometry": {"type": "Point", "coordinates": [57.640106685470386, 26.924680748266702]}}, {"type": "Feature", "properties": {"norad_id": 37695, "name": "FENGYUN 1C DEB", "group": "fengyun-1c-debris", "lat": -37.2984945232861, "lon": -149.3511682167912, "alt_km": 701.4874693515831, "timestamp": "2025-12-20T20:38:44.732259+00:00", "meta": {"OBJECT_NAME": "FENGYUN 1C DEB", "OBJECT_ID": "1999-025ELL", "EPOCH": "2025-12-15T20:50:38.916672", "MEAN_MOTION": 13.64992638, "ECCENTRICITY": 0.04654766, "INCLINATION": 98.2113, "RA_OF_ASC_NODE": 32.72, "ARG_OF_PERICENTER": 252.5094, "MEAN_ANOMALY": 291.0319, "EPHEMERIS_TYPE": 0, "CLASSIFICATION_TYPE": "U", "NORAD_CAT_ID": 37695, "ELEMENT_SET_NO": 999, "REV_AT_EPOCH": 89294, "BSTAR": 0.00074996206, "MEAN_MOTION_DOT": 1.237e-05, "MEAN_MOTION_DDOT": 0}, "tle": {"line1": "1 37695U 99025ELL 25349.86850598  .00001237  00000+0  74996-3 0  9997", "line2": "2 37695  98.2113  32.7200 0465476 252.5094 291.0319 13.64992638892947"}}, "geometry": {"type": "Point", "coordinates": [-149.3511682167912, -37.2984945232861]}}, {"type": "Feature", "properties": {"norad_id": 37704, "name": "FENGYUN 1C DEB", "group": "fengyun-1c-debris", "lat": -11.557542865739812, "lon": -171.36307703629, "alt_km": 1175.382606829302, "timestamp": "2025-12-20T20:38:44.732270+00:00", "meta": {"OBJECT_NAME": "FENGYUN 1C DEB", "OBJECT_ID": "1999-025ELV", "EPOCH": "2025-12-10T18:58:47.253216", "MEAN_MOTION": 13.70500661, "ECCENTRICITY": 0.02401356, "INCLINATION": 98.3199, "RA_OF_ASC_NODE": 178.1952, "ARG_OF_PERICENTER": 184.1814, "MEAN_ANOMALY": 190.5574, "EPHEMERIS_TYPE": 0, "CLASSIFICATION_TYPE": "U", "NORAD_CAT_ID": 37704, "ELEMENT_SET_NO": 999, "REV_AT_EPOCH": 62338, "BSTAR": 0.0019314833, "MEAN_MOTION_DOT": 2.062e-05, "MEAN_MOTION_DDOT": 0}, "tle": {"line1": "1 37704U 99025ELV 25344.79082469  .00002062  00000+0  19315-2 0  9999", "line2": "2 37704  98.3199 178.1952 0240135 184.1814 190.5574 13.70500661623389"}}, "geometry": {"type": "Point", "coordinates": [-171.36307703629, -11.557542865739812]}}, {"type": "Feature", "properties": {"norad_id": 37707, "name": "FENGYUN 1C DEB", "group": "fengyun-1c-debris", "lat": 77.98802639286536, "lon": -57.3164788804075, "alt_km": 680.477141862898, "timestamp": "2025-12-20T20:38:44.732280+00:00", "meta": {"OBJECT_NAME": "FENGYUN 1C DEB", "OBJECT_ID": "1999-025ELY", "EPOCH": "2025-12-17T06:35:19.530240", "MEAN_MOTION": 14.56477467, "ECCENTRICITY": 0.01433735, "INCLINATION": 100.2206, "RA_OF_ASC_NODE": 356.2824, "ARG_OF_PERICENTER": 12.733, "MEAN_ANOMALY": 358.6114, "EPHEMERIS_TYPE": 0, "CLASSIFICATION_TYPE": "U", "NORAD_CAT_ID": 37707, "ELEMENT_SET_NO": 999, "REV_AT_EPOCH": 85632, "BSTAR": 0.00056858098, "MEAN_MOTION_DOT": 2.832e-05, "MEAN_MOTION_DDOT": 0}, "tle": {"line1": "1 37707U 99025ELY 25351.27453160  .00002832  00000+0  56858-3 0  9992", "line2": "2 37707 100.2206 356.2824 0143373  12.7330 358.6114 14.56477467856327"}}, "geometry": {"type": "Point", "coordinates": [-57.3164788804075, 77.98802639286536]}}, {"type": "Feature", "properties": {"norad_id": 37712, "name": "FENGYUN 1C DEB", "group": "fengyun-1c-debris", "lat": 64.53785590749196, "lon": 115.04071439126959, "alt_km": 769.9155652364097, "timestamp": "2025-12-20T20:38:44.732290+00:00", "meta": {"OBJECT_NAME": "FENGYUN 1C DEB", "OBJECT_ID": "1999-025EMD", "EPOCH": "2025-12-19T15:58:41.941344", "MEAN_MOTION": 14.36444911, "ECCENTRICITY": 0.0078929, "INCLINATION": 98.8186, "RA_OF_ASC_NODE": 132.8458, "ARG_OF_PERICENTER": 333.0498, "MEAN_ANOMALY": 38.7529, "EPHEMERIS_TYPE": 0, "CLASSIFICATION_TYPE": "U", "NORAD_CAT_ID": 37712, "ELEMENT_SET_NO": 999, "REV_AT_EPOCH": 64060, "BSTAR": 0.00029518, "MEAN_MOTION_DOT": 8.49e-06, "MEAN_MOTION_DDOT": 0}, "tle": {"line1": "1 37712U 99025EMD 25353.66576321  .00000849  00000+0  29518-3 0  9997", "line2": "2 37712  98.8186 132.8458 0078929 333.0498  38.7529 14.36444911640605"}}, "geometry": {"type": "Point", "coordinates": [115.04071439126959, 64.53785590749196]}}, {"type": "Feature", "properties": {"norad_id": 37714, "name": "FENGYUN 1C DEB", "group": "fengyun-1c-debris", "lat": -20.829884100000655, "lon": -76.65103036159164, "alt_km": 815.596551650633, "timestamp": "2025-12-20T20:38:44.732300+00:00", "meta": {"OBJECT_NAME": "FENGYUN 1C DEB", "OBJECT_ID": "1999-025EMF", "EPOCH": "2025-12-17T02:51:19.662912", "MEAN_MOTION": 14.3227902, "ECCENTRICITY": 0.00479393, "INCLINATION": 98.8925, "RA_OF_ASC_NODE": 102.9292, "ARG_OF_PERICENTER": 71.5277, "MEAN_ANOMALY": 289.1107, "EPHEMERIS_TYPE": 0, "CLASSIFICATION_TYPE": "U", "NORAD_CAT_ID": 37714, "ELEMENT_SET_NO": 999, "REV_AT_EPOCH": 57572, "BSTAR": 0.0015552397, "MEAN_MOTION_DOT": 4.206e-05, "MEAN_MOTION_DDOT": 0}, "tle": {"line1": "1 37714U 99025EMF 25351.11897758  .00004206  00000+0  15552-2 0  9990", "line2": "2 37714  98.8925 102.9292 0047939  71.5277 289.1107 14.32279020575725"}}, "geometry": {"type": "Point", "coordinates": [-76.65103036159164, -20.829884100000655]}}, {"type": "Feature", "properties": {"norad_id": 37715, "name": "FENGYUN 1C DEB", "group": "fengyun-1c-debris", "lat": 6.551323848626613, "lon": 1.3562040464707699, "alt_km": 900.7573998310236, "timestamp": "2025-12-20T20:38:44.732311+00:00", "meta": {"OBJECT_NAME": "FENGYUN 1C DEB", "OBJECT_ID": "1999-025EMG", "EPOCH": "2025-12-17T19:27:16.372224", "MEAN_MOTION": 13.95421222, "ECCENTRICITY": 0.01145113, "INCLINATION": 98.9562, "RA_OF_ASC_NODE": 359.431, "ARG_OF_PERICENTER": 98.2581, "MEAN_ANOMALY": 78.2636, "EPHEMERIS_TYPE": 0, "CLASSIFICATION_TYPE": "U", "NORAD_CAT_ID": 37715, "ELEMENT_SET_NO": 999, "REV_AT_EPOCH": 57874, "BSTAR": 0.00031322546, "MEAN_MOTION_DOT": 4.07e-06, "MEAN_MOTION_DDOT": 0}, "tle": {"line1": "1 37715U 99025EMG 25351.81060616  .00000407  00000+0  31323-3 0  9997", "line2": "2 37715  98.9562 359.4310 0114511  98.2581  78.2636 13.95421222578749"}}, "geometry": {"type": "Point", "coordinates": [1.3562040464707699, 6.551323848626613]}}, {"type": "Feature", "properties": {"norad_id": 37717, "name": "FENGYUN 1C DEB", "group": "fengyun-1c-debris", "lat": 69.04123568381516, "lon": -72.11605659662288, "alt_km": 537.0014211939142, "timestamp": "2025-12-20T20:38:44.732321+00:00", "meta": {"OBJECT_NAME": "FENGYUN 1C DEB", "OBJECT_ID": "1999-025EMJ", "EPOCH": "2025-12-15T15:45:42.031008", "MEAN_MOTION": 14.9413508, "ECCENTRICITY": 0.00589425, "INCLINATION": 98.7251, "RA_OF_ASC_NODE": 305.744, "ARG_OF_PERICENTER": 93.6212, "MEAN_ANOMALY": 83.4535, "EPHEMERIS_TYPE": 0, "CLASSIFICATION_TYPE": "U", "NORAD_CAT_ID": 37717, "ELEMENT_SET_NO": 999, "REV_AT_EPOCH": 89441, "BSTAR": 0.0015918464, "MEAN_MOTION_DOT": 0.00017586, "MEAN_MOTION_DDOT": 0}, "tle": {"line1": "1 37717U 99025EMJ 25349.65673647  .00017586  00000+0  15918-2 0  9999", "line2": "2 37717  98.7251 305.7440 0058942  93.6212  83.4535 14.94135080894412"}}, "geometry": {"type": "Point", "coordinates": [-72.11605659662288, 69.04123568381516]}}]}